{
  "type": "FeatureCollection",
  "features": [
    {
      "type": "Feature",
      "properties": {
        "norad_id": 31816,
        "name": "FENGYUN 1C DEB",
        "group": "fengyun-1c-debris",
        "lat": 25.16450769505625,
        "lon": 91.33525826359126,
        "alt_km": 984.4219125284399,
        "timestamp": "2025-12-07T03:52:32.781583+00:00",
        "meta_object_name": "FENGYUN 1C DEB",
        "meta_object_id": "1999-025CHE",
        "meta_epoch": "2025-12-05T13:55:39.419904",
        "meta_mean_motion": 13.94148178,
        "meta_eccentricity": 0.01214953,
        "meta_inclination": 98.9837,
        "meta_ra_of_asc_node": 94.0597,
        "meta_arg_of_pericenter": 173.7807,
        "meta_mean_anomaly": 201.1488,
        "meta_ephemeris_type": 0,
        "meta_classification_type": "U",
        "meta_norad_cat_id": 31816,
        "meta_element_set_no": 999,
        "meta_rev_at_epoch": 93594,
        "meta_bstar": 0.0018222804,
        "meta_mean_motion_dot": 2.527e-05,
        "meta_mean_motion_ddot": 0,
        "tle_line1": "1 31816U 99025CHE 25339.58031736  .00002527  00000+0  18223-2 0  9992",
        "tle_line2": "2 31816  98.9837  94.0597 0121495 173.7807 201.1488 13.94148178935944"
      },
      "geometry": {
        "type": "Point",
        "coordinates": [
          91.33525826359126,
          25.16450769505625
        ]
      }
    },
    {
      "type": "Feature",
      "properties": {
        "norad_id": 31817,
        "name": "FENGYUN 1C DEB",
        "group": "fengyun-1c-debris",
        "lat": -78.03963523995381,
        "lon": 109.20684713974653,
        "alt_km": 726.2179693661883,
        "timestamp": "2025-12-07T03:52:32.781593+00:00",
        "meta_object_name": "FENGYUN 1C DEB",
        "meta_object_id": "1999-025CHF",
        "meta_epoch": "2025-12-05T22:49:54.869664",
        "meta_mean_motion": 14.65526958,
        "meta_eccentricity": 0.00629073,
        "meta_inclination": 98.9185,
        "meta_ra_of_asc_node": 335.7362,
        "meta_arg_of_pericenter": 96.2187,
        "meta_mean_anomaly": 264.6185,
        "meta_ephemeris_type": 0,
        "meta_classification_type": "U",
        "meta_norad_cat_id": 31817,
        "meta_element_set_no": 999,
        "meta_rev_at_epoch": 71306,
        "meta_bstar": 0.0020827092,
        "meta_mean_motion_dot": 0.00011585,
        "meta_mean_motion_ddot": 0,
        "tle_line1": "1 31817U 99025CHF 25339.95132951  .00011585  00000+0  20827-2 0  9992",
        "tle_line2": "2 31817  98.9185 335.7362 0062907  96.2187 264.6185 14.65526958713068"
      },
      "geometry": {
        "type": "Point",
        "coordinates": [
          109.20684713974653,
          -78.03963523995381
        ]
      }
    },
    {
      "type": "Feature",
      "properties": {
        "norad_id": 31819,
        "name": "FENGYUN 1C DEB",
        "group": "fengyun-1c-debris",
        "lat": 2.963357445264045,
        "lon": 153.05745518886837,
        "alt_km": 852.5177622888668,
        "timestamp": "2025-12-07T03:52:32.781603+00:00",
        "meta_object_name": "FENGYUN 1C DEB",
        "meta_object_id": "1999-025CHH",
        "meta_epoch": "2025-12-06T05:13:11.111808",
        "meta_mean_motion": 14.3015199,
        "meta_eccentricity": 0.0087233,
        "meta_inclination": 98.4735,
        "meta_ra_of_asc_node": 331.6961,
        "meta_arg_of_pericenter": 339.8058,
        "meta_mean_anomaly": 19.9682,
        "meta_ephemeris_type": 0,
        "meta_classification_type": "U",
        "meta_norad_cat_id": 31819,
        "meta_element_set_no": 999,
        "meta_rev_at_epoch": 96600,
        "meta_bstar": 0.00070545042,
        "meta_mean_motion_dot": 1.859e-05,
        "meta_mean_motion_ddot": 0,
        "tle_line1": "1 31819U 99025CHH 25340.21748972  .00001859  00000+0  70545-3 0  9997",
        "tle_line2": "2 31819  98.4735 331.6961 0087233 339.8058  19.9682 14.30151990966007"
      },
      "geometry": {
        "type": "Point",
        "coordinates": [
          153.05745518886837,
          2.963357445264045
        ]
      }
    },
    {
      "type": "Feature",
      "properties": {
        "norad_id": 31820,
        "name": "FENGYUN 1C DEB",
        "group": "fengyun-1c-debris",
        "lat": -72.47084597492587,
        "lon": -178.70001889727774,
        "alt_km": 624.2702163304411,
        "timestamp": "2025-12-07T03:52:32.781614+00:00",
        "meta_object_name": "FENGYUN 1C DEB",
        "meta_object_id": "1999-025CHJ",
        "meta_epoch": "2025-12-05T05:31:51.203136",
        "meta_mean_motion": 14.91947844,
        "meta_eccentricity": 0.01510454,
        "meta_inclination": 98.9594,
        "meta_ra_of_asc_node": 149.1402,
        "meta_arg_of_pericenter": 36.1593,
        "meta_mean_anomaly": 324.9721,
        "meta_ephemeris_type": 0,
        "meta_classification_type": "U",
        "meta_norad_cat_id": 31820,
        "meta_element_set_no": 999,
        "meta_rev_at_epoch": 98144,
        "meta_bstar": 0.0016610568,
        "meta_mean_motion_dot": 0.00020946,
        "meta_mean_motion_ddot": 0,
        "tle_line1": "1 31820U 99025CHJ 25339.23045374  .00020946  00000+0  16611-2 0  9996",
        "tle_line2": "2 31820  98.9594 149.1402 0151045  36.1593 324.9721 14.91947844981449"
      },
      "geometry": {
        "type": "Point",
        "coordinates": [
          -178.70001889727774,
          -72.47084597492587
        ]
      }
    },
    {
      "type": "Feature",
      "properties": {
        "norad_id": 31821,
        "name": "FENGYUN 1C DEB",
        "group": "fengyun-1c-debris",
        "lat": -44.195939017688886,
        "lon": 38.34429639789918,
        "alt_km": 913.1076500274085,
        "timestamp": "2025-12-07T03:52:32.781624+00:00",
        "meta_object_name": "FENGYUN 1C DEB",
        "meta_object_id": "1999-025CHK",
        "meta_epoch": "2025-12-06T03:31:09.087744",
        "meta_mean_motion": 14.4155298,
        "meta_eccentricity": 0.02212689,
        "meta_inclination": 98.1561,
        "meta_ra_of_asc_node": 225.3899,
        "meta_arg_of_pericenter": 34.4184,
        "meta_mean_anomaly": 327.1114,
        "meta_ephemeris_type": 0,
        "meta_classification_type": "U",
        "meta_norad_cat_id": 31821,
        "meta_element_set_no": 999,
        "meta_rev_at_epoch": 93566,
        "meta_bstar": 0.0078422064,
        "meta_mean_motion_dot": 0.0003427,
        "meta_mean_motion_ddot": 0,
        "tle_line1": "1 31821U 99025CHK 25340.14663296  .00034270  00000+0  78422-2 0  9991",
        "tle_line2": "2 31821  98.1561 225.3899 0221268  34.4184 327.1114 14.41552980935667"
      },
      "geometry": {
        "type": "Point",
        "coordinates": [
          38.34429639789918,
          -44.195939017688886
        ]
      }
    },
    {
      "type": "Feature",
      "properties": {
        "norad_id": 31823,
        "name": "FENGYUN 1C DEB",
        "group": "fengyun-1c-debris",
        "lat": -79.91839046044043,
        "lon": 137.0842598236991,
        "alt_km": 661.6531698377785,
        "timestamp": "2025-12-07T03:52:32.781635+00:00",
        "meta_object_name": "FENGYUN 1C DEB",
        "meta_object_id": "1999-025CHM",
        "meta_epoch": "2025-12-05T11:18:23.239584",
        "meta_mean_motion": 14.65527354,
        "meta_eccentricity": 0.00370888,
        "meta_inclination": 99.5125,
        "meta_ra_of_asc_node": 64.5524,
        "meta_arg_of_pericenter": 241.2937,
        "meta_mean_anomaly": 118.4532,
        "meta_ephemeris_type": 0,
        "meta_classification_type": "U",
        "meta_norad_cat_id": 31823,
        "meta_element_set_no": 999,
        "meta_rev_at_epoch": 96611,
        "meta_bstar": 0.0024343753,
        "meta_mean_motion_dot": 0.00013294,
        "meta_mean_motion_ddot": 0,
        "tle_line1": "1 31823U 99025CHM 25339.47110231  .00013294  00000+0  24344-2 0  9990",
        "tle_line2": "2 31823  99.5125  64.5524 0037088 241.2937 118.4532 14.65527354966119"
      },
      "geometry": {
        "type": "Point",
        "coordinates": [
          137.0842598236991,
          -79.91839046044043
        ]
      }
    },
    {
      "type": "Feature",
      "properties": {
        "norad_id": 31825,
        "name": "FENGYUN 1C DEB",
        "group": "fengyun-1c-debris",
        "lat": 31.87906876098207,
        "lon": 166.30219838414732,
        "alt_km": 924.1931295610175,
        "timestamp": "2025-12-07T03:52:32.781645+00:00",
        "meta_object_name": "FENGYUN 1C DEB",
        "meta_object_id": "1999-025CHP",
        "meta_epoch": "2025-12-06T05:13:40.692576",
        "meta_mean_motion": 14.21609837,
        "meta_eccentricity": 0.01660672,
        "meta_inclination": 98.59,
        "meta_ra_of_asc_node": 339.9891,
        "meta_arg_of_pericenter": 357.2805,
        "meta_mean_anomaly": 2.7454,
        "meta_ephemeris_type": 0,
        "meta_classification_type": "U",
        "meta_norad_cat_id": 31825,
        "meta_element_set_no": 999,
        "meta_rev_at_epoch": 95529,
        "meta_bstar": 0.0012829772,
        "meta_mean_motion_dot": 3.193e-05,
        "meta_mean_motion_ddot": 0,
        "tle_line1": "1 31825U 99025CHP 25340.21783209  .00003193  00000+0  12830-2 0  9991",
        "tle_line2": "2 31825  98.5900 339.9891 0166067 357.2805   2.7454 14.21609837955293"
      },
      "geometry": {
        "type": "Point",
        "coordinates": [
          166.30219838414732,
          31.87906876098207
        ]
      }
    }
  ]
}